[{"OBJECT_NAME":"STARLINK-37144","OBJECT_ID":"2026-070Q","EPOCH":"2026-04-10T12:00:02.000160","MEAN_MOTION":15.99300704,"ECCENTRICITY":8.23e-5,"INCLINATION":53.1588,"RA_OF_ASC_NODE":225.3525,"ARG_OF_PERICENTER":72.8688,"MEAN_ANOMALY":128.9131,"EPHEMERIS_TYPE":0,"CLASSIFICATION_TYPE":"U","NORAD_CAT_ID":68556,"ELEMENT_SET_NO":999,"REV_AT_EPOCH":249,"BSTAR":-0.002279,"MEAN_MOTION_DOT":-0.01149956,"MEAN_MOTION_DDOT":0.00042468},{"OBJECT_NAME":"STARLINK-37210","OBJECT_ID":"2026-070R","EPOCH":"2026-04-10T12:00:02.000160","MEAN_MOTION":15.99188705,"ECCENTRICITY":8.49e-5,"INCLINATION":53.1587,"RA_OF_ASC_NODE":225.3581,"ARG_OF_PERICENTER":71.0095,"MEAN_ANOMALY":128.4749,"EPHEMERIS_TYPE":0,"CLASSIFICATION_TYPE":"U","NORAD_CAT_ID":68557,"ELEMENT_SET_NO":999,"REV_AT_EPOCH":249,"BSTAR":-0.0022706,"MEAN_MOTION_DOT":-0.01138594,"MEAN_MOTION_DDOT":0.00041659},{"OBJECT_NAME":"STARLINK-37227","OBJECT_ID":"2026-070S","EPOCH":"2026-04-10T12:00:02.000160","MEAN_MOTION":15.99403937,"ECCENTRICITY":7.8e-5,"INCLINATION":53.1585,"RA_OF_ASC_NODE":225.3479,"ARG_OF_PERICENTER":70.3332,"MEAN_ANOMALY":133.7716,"EPHEMERIS_TYPE":0,"CLASSIFICATION_TYPE":"U","NORAD_CAT_ID":68558,"ELEMENT_SET_NO":999,"REV_AT_EPOCH":249,"BSTAR":-0.0022546,"MEAN_MOTION_DOT":-0.01144374,"MEAN_MOTION_DDOT":0.0004214},{"OBJECT_NAME":"STARLINK-37294","OBJECT_ID":"2026-070T","EPOCH":"2026-04-10T12:00:02.000160","MEAN_MOTION":15.99512543,"ECCENTRICITY":7.88e-5,"INCLINATION":53.1588,"RA_OF_ASC_NODE":225.3427,"ARG_OF_PERICENTER":72.7857,"MEAN_ANOMALY":133.8989,"EPHEMERIS_TYPE":0,"CLASSIFICATION_TYPE":"U","NORAD_CAT_ID":68559,"ELEMENT_SET_NO":999,"REV_AT_EPOCH":249,"BSTAR":-0.002212,"MEAN_MOTION_DOT":-0.0112985,"MEAN_MOTION_DDOT":0.00041223},{"OBJECT_NAME":"STARLINK-37291","OBJECT_ID":"2026-070U","EPOCH":"2026-04-10T12:00:02.000160","MEAN_MOTION":15.99625929,"ECCENTRICITY":8.22e-5,"INCLINATION":53.1587,"RA_OF_ASC_NODE":225.3382,"ARG_OF_PERICENTER":78.8808,"MEAN_ANOMALY":130.0305,"EPHEMERIS_TYPE":0,"CLASSIFICATION_TYPE":"U","NORAD_CAT_ID":68560,"ELEMENT_SET_NO":999,"REV_AT_EPOCH":249,"BSTAR":-0.0022264,"MEAN_MOTION_DOT":-0.01144407,"MEAN_MOTION_DDOT":0.00042243},{"OBJECT_NAME":"STARLINK-37114","OBJECT_ID":"2026-070V","EPOCH":"2026-04-10T12:00:02.000160","MEAN_MOTION":15.99717191,"ECCENTRICITY":8.43e-5,"INCLINATION":53.1587,"RA_OF_ASC_NODE":225.3338,"ARG_OF_PERICENTER":73.0866,"MEAN_ANOMALY":137.9069,"EPHEMERIS_TYPE":0,"CLASSIFICATION_TYPE":"U","NORAD_CAT_ID":68561,"ELEMENT_SET_NO":999,"REV_AT_EPOCH":249,"BSTAR":-0.0021877,"MEAN_MOTION_DOT":-0.01130558,"MEAN_MOTION_DDOT":0.0004136},{"OBJECT_NAME":"STARLINK-37233","OBJECT_ID":"2026-070W","EPOCH":"2026-04-10T12:00:02.000160","MEAN_MOTION":15.99935595,"ECCENTRICITY":8.49e-5,"INCLINATION":53.1587,"RA_OF_ASC_NODE":225.3244,"ARG_OF_PERICENTER":70.7934,"MEAN_ANOMALY":144.7237,"EPHEMERIS_TYPE":0,"CLASSIFICATION_TYPE":"U","NORAD_CAT_ID":68562,"ELEMENT_SET_NO":999,"REV_AT_EPOCH":249,"BSTAR":-0.0021814,"MEAN_MOTION_DOT":-0.01141329,"MEAN_MOTION_DDOT":0.00042177},{"OBJECT_NAME":"STARLINK-36238","OBJECT_ID":"2026-070X","EPOCH":"2026-04-10T12:00:02.000160","MEAN_MOTION":15.9982122,"ECCENTRICITY":8.62e-5,"INCLINATION":53.1585,"RA_OF_ASC_NODE":225.3291,"ARG_OF_PERICENTER":74.2915,"MEAN_ANOMALY":138.8945,"EPHEMERIS_TYPE":0,"CLASSIFICATION_TYPE":"U","NORAD_CAT_ID":68563,"ELEMENT_SET_NO":999,"REV_AT_EPOCH":244,"BSTAR":-0.0021772,"MEAN_MOTION_DOT":-0.01131829,"MEAN_MOTION_DDOT":0.00041491},{"OBJECT_NAME":"STARLINK-37008","OBJECT_ID":"2026-070Y","EPOCH":"2026-04-10T12:00:02.000160","MEAN_MOTION":16.00044429,"ECCENTRICITY":8.02e-5,"INCLINATION":53.1587,"RA_OF_ASC_NODE":225.3196,"ARG_OF_PERICENTER":74.3035,"MEAN_ANOMALY":143.6396,"EPHEMERIS_TYPE":0,"CLASSIFICATION_TYPE":"U","NORAD_CAT_ID":68564,"ELEMENT_SET_NO":999,"REV_AT_EPOCH":249,"BSTAR":-0.0021571,"MEAN_MOTION_DOT":-0.01135727,"MEAN_MOTION_DDOT":0.00041851},{"OBJECT_NAME":"STARLINK-37161","OBJECT_ID":"2026-070Z","EPOCH":"2026-04-10T12:00:02.000160","MEAN_MOTION":16.00154766,"ECCENTRICITY":8.54e-5,"INCLINATION":53.1583,"RA_OF_ASC_NODE":225.3146,"ARG_OF_PERICENTER":72.4198,"MEAN_ANOMALY":147.835,"EPHEMERIS_TYPE":0,"CLASSIFICATION_TYPE":"U","NORAD_CAT_ID":68565,"ELEMENT_SET_NO":999,"REV_AT_EPOCH":249,"BSTAR":-0.0021456,"MEAN_MOTION_DOT":-0.01136796,"MEAN_MOTION_DDOT":0.00041973},{"OBJECT_NAME":"STARLINK-37212","OBJECT_ID":"2026-070AA","EPOCH":"2026-04-10T12:00:02.000160","MEAN_MOTION":16.00233583,"ECCENTRICITY":8.03e-5,"INCLINATION":53.1584,"RA_OF_ASC_NODE":225.3109,"ARG_OF_PERICENTER":71.9848,"MEAN_ANOMALY":149.9393,"EPHEMERIS_TYPE":0,"CLASSIFICATION_TYPE":"U","NORAD_CAT_ID":68566,"ELEMENT_SET_NO":999,"REV_AT_EPOCH":249,"BSTAR":-0.0021242,"MEAN_MOTION_DOT":-0.01130657,"MEAN_MOTION_DDOT":0.00041598},{"OBJECT_NAME":"STARLINK-37261","OBJECT_ID":"2026-070AB","EPOCH":"2026-04-10T12:00:02.000160","MEAN_MOTION":16.00356696,"ECCENTRICITY":7.08e-5,"INCLINATION":53.1584,"RA_OF_ASC_NODE":225.3055,"ARG_OF_PERICENTER":74.7906,"MEAN_ANOMALY":149.8162,"EPHEMERIS_TYPE":0,"CLASSIFICATION_TYPE":"U","NORAD_CAT_ID":68567,"ELEMENT_SET_NO":999,"REV_AT_EPOCH":249,"BSTAR":-0.0021148,"MEAN_MOTION_DOT":-0.01133557,"MEAN_MOTION_DDOT":0.00041847},{"OBJECT_NAME":"STARLINK-37283","OBJECT_ID":"2026-070AC","EPOCH":"2026-04-10T12:00:02.000160","MEAN_MOTION":15.95632507,"ECCENTRICITY":9.79e-5,"INCLINATION":53.1586,"RA_OF_ASC_NODE":225.4209,"ARG_OF_PERICENTER":70.1673,"MEAN_ANOMALY":98.9162,"EPHEMERIS_TYPE":0,"CLASSIFICATION_TYPE":"U","NORAD_CAT_ID":68568,"ELEMENT_SET_NO":999,"REV_AT_EPOCH":249,"BSTAR":-0.0034798,"MEAN_MOTION_DOT":-0.01429109,"MEAN_MOTION_DDOT":0.00060724},{"OBJECT_NAME":"STARLINK-37256","OBJECT_ID":"2026-070AD","EPOCH":"2026-04-10T12:00:02.000160","MEAN_MOTION":15.9549105,"ECCENTRICITY":0.00011,"INCLINATION":53.1587,"RA_OF_ASC_NODE":225.4342,"ARG_OF_PERICENTER":70.0623,"MEAN_ANOMALY":92.586,"EPHEMERIS_TYPE":0,"CLASSIFICATION_TYPE":"U","NORAD_CAT_ID":68569,"ELEMENT_SET_NO":999,"REV_AT_EPOCH":249,"BSTAR":-0.0034431,"MEAN_MOTION_DOT":-0.01403604,"MEAN_MOTION_DDOT":0.00058675},{"OBJECT_NAME":"STARLINK-37228","OBJECT_ID":"2026-070AE","EPOCH":"2026-04-10T12:00:02.000160","MEAN_MOTION":15.95782279,"ECCENTRICITY":0.0001055,"INCLINATION":53.1588,"RA_OF_ASC_NODE":225.4091,"ARG_OF_PERICENTER":76.882,"MEAN_ANOMALY":97.9366,"EPHEMERIS_TYPE":0,"CLASSIFICATION_TYPE":"U","NORAD_CAT_ID":68570,"ELEMENT_SET_NO":999,"REV_AT_EPOCH":249,"BSTAR":-0.0035359,"MEAN_MOTION_DOT":-0.01463535,"MEAN_MOTION_DDOT":0.00063522},{"OBJECT_NAME":"MERIDIAN-M 21L","OBJECT_ID":"2026-071A","EPOCH":"2026-04-10T08:52:29.570880","MEAN_MOTION":1.98601147,"ECCENTRICITY":0.723736,"INCLINATION":62.7812,"RA_OF_ASC_NODE":237.8861,"ARG_OF_PERICENTER":284.9786,"MEAN_ANOMALY":10.8209,"EPHEMERIS_TYPE":0,"CLASSIFICATION_TYPE":"U","NORAD_CAT_ID":68571,"ELEMENT_SET_NO":999,"REV_AT_EPOCH":15,"BSTAR":0.033982,"MEAN_MOTION_DOT":-6.2e-7,"MEAN_MOTION_DDOT":0}]
