STARLINK-37144          
1 68556U 26070Q   26100.50002315 -.01149956  42468-3 -22790-2 0  9996
2 68556  53.1588 225.3525 0000823  72.8688 128.9131 15.99300704  2496
STARLINK-37210          
1 68557U 26070R   26100.50002315 -.01138594  41659-3 -22706-2 0  9991
2 68557  53.1587 225.3581 0000849  71.0095 128.4749 15.99188705  2494
STARLINK-37227          
1 68558U 26070S   26100.50002315 -.01144374  42140-3 -22546-2 0  9993
2 68558  53.1585 225.3479 0000780  70.3332 133.7716 15.99403937  2499
STARLINK-37294          
1 68559U 26070T   26100.50002315 -.01129850  41223-3 -22120-2 0  9995
2 68559  53.1588 225.3427 0000788  72.7857 133.8989 15.99512543  2499
STARLINK-37291          
1 68560U 26070U   26100.50002315 -.01144407  42243-3 -22264-2 0  9994
2 68560  53.1587 225.3382 0000822  78.8808 130.0305 15.99625929  2496
STARLINK-37114          
1 68561U 26070V   26100.50002315 -.01130558  41360-3 -21877-2 0  9995
2 68561  53.1587 225.3338 0000843  73.0866 137.9069 15.99717191  2498
STARLINK-37233          
1 68562U 26070W   26100.50002315 -.01141329  42177-3 -21814-2 0  9992
2 68562  53.1587 225.3244 0000849  70.7934 144.7237 15.99935595  2494
STARLINK-36238          
1 68563U 26070X   26100.50002315 -.01131829  41491-3 -21772-2 0  9998
2 68563  53.1585 225.3291 0000862  74.2915 138.8945 15.99821220  2442
STARLINK-37008          
1 68564U 26070Y   26100.50002315 -.01135727  41851-3 -21571-2 0  9997
2 68564  53.1587 225.3196 0000802  74.3035 143.6396 16.00044429  2497
STARLINK-37161          
1 68565U 26070Z   26100.50002315 -.01136796  41973-3 -21456-2 0  9992
2 68565  53.1583 225.3146 0000854  72.4198 147.8350 16.00154766  2497
STARLINK-37212          
1 68566U 26070AA  26100.50002315 -.01130657  41598-3 -21242-2 0  9999
2 68566  53.1584 225.3109 0000803  71.9848 149.9393 16.00233583  2493
STARLINK-37261          
1 68567U 26070AB  26100.50002315 -.01133557  41847-3 -21148-2 0  9994
2 68567  53.1584 225.3055 0000708  74.7906 149.8162 16.00356696  2498
STARLINK-37283          
1 68568U 26070AC  26100.50002315 -.01429109  60724-3 -34798-2 0  9996
2 68568  53.1586 225.4209 0000979  70.1673  98.9162 15.95632507  2499
STARLINK-37256          
1 68569U 26070AD  26100.50002315 -.01403604  58675-3 -34431-2 0  9995
2 68569  53.1587 225.4342 0001100  70.0623  92.5860 15.95491050  2491
STARLINK-37228          
1 68570U 26070AE  26100.50002315 -.01463535  63522-3 -35359-2 0  9993
2 68570  53.1588 225.4091 0001055  76.8820  97.9366 15.95782279  2493
MERIDIAN-M 21L          
1 68571U 26071A   26100.36978670 -.00000062  00000+0  33982-1 0  9992
2 68571  62.7812 237.8861 7237360 284.9786  10.8209  1.98601147   155
